[{"OBJECT_NAME":"STARLINK-11333 [DTC]","OBJECT_ID":"2024-237G","EPOCH":"2025-08-31T01:00:23.995296","MEAN_MOTION":15.70828781,"ECCENTRICITY":0.00017943,"INCLINATION":43,"RA_OF_ASC_NODE":126.1914,"ARG_OF_PERICENTER":271.1623,"MEAN_ANOMALY":88.9039,"EPHEMERIS_TYPE":0,"CLASSIFICATION_TYPE":"U","NORAD_CAT_ID":62273,"ELEMENT_SET_NO":999,"REV_AT_EPOCH":4306,"BSTAR":0.0021942971,"MEAN_MOTION_DOT":0.00291058,"MEAN_MOTION_DDOT":0},{"OBJECT_NAME":"STARLINK-11504 [DTC]","OBJECT_ID":"2024-237H","EPOCH":"2025-08-30T23:05:54.628512","MEAN_MOTION":15.71001344,"ECCENTRICITY":0.00026479,"INCLINATION":42.9998,"RA_OF_ASC_NODE":126.446,"ARG_OF_PERICENTER":278.0746,"MEAN_ANOMALY":81.9821,"EPHEMERIS_TYPE":0,"CLASSIFICATION_TYPE":"U","NORAD_CAT_ID":62274,"ELEMENT_SET_NO":999,"REV_AT_EPOCH":4300,"BSTAR":0.0020771249,"MEAN_MOTION_DOT":0.00277031,"MEAN_MOTION_DDOT":0},{"OBJECT_NAME":"STARLINK-11495 [DTC]","OBJECT_ID":"2024-237J","EPOCH":"2025-08-31T09:01:09.121728","MEAN_MOTION":15.70894388,"ECCENTRICITY":0.00012561,"INCLINATION":42.9992,"RA_OF_ASC_NODE":124.4029,"ARG_OF_PERICENTER":35.9681,"MEAN_ANOMALY":324.1271,"EPHEMERIS_TYPE":0,"CLASSIFICATION_TYPE":"U","NORAD_CAT_ID":62275,"ELEMENT_SET_NO":999,"REV_AT_EPOCH":4306,"BSTAR":0.0020328058,"MEAN_MOTION_DOT":0.00269644,"MEAN_MOTION_DDOT":0},{"OBJECT_NAME":"STARLINK-11498 [DTC]","OBJECT_ID":"2024-237K","EPOCH":"2025-08-31T09:23:53.085696","MEAN_MOTION":15.70919202,"ECCENTRICITY":0.00022742,"INCLINATION":42.9995,"RA_OF_ASC_NODE":123.6341,"ARG_OF_PERICENTER":276.2743,"MEAN_ANOMALY":83.7866,"EPHEMERIS_TYPE":0,"CLASSIFICATION_TYPE":"U","NORAD_CAT_ID":62276,"ELEMENT_SET_NO":999,"REV_AT_EPOCH":4312,"BSTAR":0.0021540001,"MEAN_MOTION_DOT":0.0028664,"MEAN_MOTION_DDOT":0},{"OBJECT_NAME":"STARLINK-11484 [DTC]","OBJECT_ID":"2024-237L","EPOCH":"2025-08-31T02:01:22.611936","MEAN_MOTION":15.70877851,"ECCENTRICITY":0.00013299,"INCLINATION":42.9996,"RA_OF_ASC_NODE":125.6357,"ARG_OF_PERICENTER":299.3896,"MEAN_ANOMALY":60.6839,"EPHEMERIS_TYPE":0,"CLASSIFICATION_TYPE":"U","NORAD_CAT_ID":62277,"ELEMENT_SET_NO":999,"REV_AT_EPOCH":4307,"BSTAR":0.0014397925,"MEAN_MOTION_DOT":0.00188853,"MEAN_MOTION_DDOT":0},{"OBJECT_NAME":"STARLINK-11487 [DTC]","OBJECT_ID":"2024-237M","EPOCH":"2025-08-31T08:45:51.081120","MEAN_MOTION":15.70900676,"ECCENTRICITY":8.633e-5,"INCLINATION":43.0031,"RA_OF_ASC_NODE":124.3138,"ARG_OF_PERICENTER":305.6399,"MEAN_ANOMALY":54.4388,"EPHEMERIS_TYPE":0,"CLASSIFICATION_TYPE":"U","NORAD_CAT_ID":62278,"ELEMENT_SET_NO":999,"REV_AT_EPOCH":4311,"BSTAR":0.0019697794,"MEAN_MOTION_DOT":0.00261068,"MEAN_MOTION_DDOT":0},{"OBJECT_NAME":"STARLINK-11499 [DTC]","OBJECT_ID":"2024-237N","EPOCH":"2025-08-31T09:02:27.393216","MEAN_MOTION":15.70922356,"ECCENTRICITY":5.893e-5,"INCLINATION":42.9997,"RA_OF_ASC_NODE":124.4091,"ARG_OF_PERICENTER":321.6619,"MEAN_ANOMALY":38.4207,"EPHEMERIS_TYPE":0,"CLASSIFICATION_TYPE":"U","NORAD_CAT_ID":62279,"ELEMENT_SET_NO":999,"REV_AT_EPOCH":4304,"BSTAR":0.0023894987,"MEAN_MOTION_DOT":0.00319352,"MEAN_MOTION_DDOT":0},{"OBJECT_NAME":"STARLINK-33548","OBJECT_ID":"2024-237P","EPOCH":"2025-08-31T06:13:40.586592","MEAN_MOTION":15.27591354,"ECCENTRICITY":0.00012309,"INCLINATION":42.998,"RA_OF_ASC_NODE":200.9488,"ARG_OF_PERICENTER":252.3368,"MEAN_ANOMALY":107.7349,"EPHEMERIS_TYPE":0,"CLASSIFICATION_TYPE":"U","NORAD_CAT_ID":62280,"ELEMENT_SET_NO":999,"REV_AT_EPOCH":4219,"BSTAR":0.00080058543,"MEAN_MOTION_DOT":0.00021841,"MEAN_MOTION_DDOT":0},{"OBJECT_NAME":"STARLINK-33544","OBJECT_ID":"2024-237Q","EPOCH":"2025-08-31T07:31:09.310080","MEAN_MOTION":15.27598842,"ECCENTRICITY":0.00016691,"INCLINATION":43.0023,"RA_OF_ASC_NODE":211.7437,"ARG_OF_PERICENTER":275.4309,"MEAN_ANOMALY":84.6353,"EPHEMERIS_TYPE":0,"CLASSIFICATION_TYPE":"U","NORAD_CAT_ID":62281,"ELEMENT_SET_NO":999,"REV_AT_EPOCH":4207,"BSTAR":0.0010209193,"MEAN_MOTION_DOT":0.00027954,"MEAN_MOTION_DDOT":0},{"OBJECT_NAME":"STARLINK-33560","OBJECT_ID":"2024-237R","EPOCH":"2025-08-31T07:05:14.706240","MEAN_MOTION":15.27609065,"ECCENTRICITY":0.00017533,"INCLINATION":43.0024,"RA_OF_ASC_NODE":211.6031,"ARG_OF_PERICENTER":262.1343,"MEAN_ANOMALY":97.931,"EPHEMERIS_TYPE":0,"CLASSIFICATION_TYPE":"U","NORAD_CAT_ID":62282,"ELEMENT_SET_NO":999,"REV_AT_EPOCH":4198,"BSTAR":0.0017386246,"MEAN_MOTION_DOT":0.00047936,"MEAN_MOTION_DDOT":0},{"OBJECT_NAME":"STARLINK-33547","OBJECT_ID":"2024-237S","EPOCH":"2025-08-31T13:58:54.115392","MEAN_MOTION":15.27611137,"ECCENTRICITY":0.00024825,"INCLINATION":42.9976,"RA_OF_ASC_NODE":199.0695,"ARG_OF_PERICENTER":276.1618,"MEAN_ANOMALY":83.8951,"EPHEMERIS_TYPE":0,"CLASSIFICATION_TYPE":"U","NORAD_CAT_ID":62283,"ELEMENT_SET_NO":999,"REV_AT_EPOCH":4224,"BSTAR":0.0013229761,"MEAN_MOTION_DOT":0.00036359,"MEAN_MOTION_DDOT":0},{"OBJECT_NAME":"STARLINK-33563","OBJECT_ID":"2024-237T","EPOCH":"2025-08-31T07:14:30.050880","MEAN_MOTION":15.27601454,"ECCENTRICITY":0.0001559,"INCLINATION":43.0024,"RA_OF_ASC_NODE":211.6517,"ARG_OF_PERICENTER":264.041,"MEAN_ANOMALY":96.0264,"EPHEMERIS_TYPE":0,"CLASSIFICATION_TYPE":"U","NORAD_CAT_ID":62284,"ELEMENT_SET_NO":999,"REV_AT_EPOCH":4207,"BSTAR":0.001482299,"MEAN_MOTION_DOT":0.0004078,"MEAN_MOTION_DDOT":0},{"OBJECT_NAME":"STARLINK-33550","OBJECT_ID":"2024-237U","EPOCH":"2025-08-31T06:59:41.654976","MEAN_MOTION":15.27602238,"ECCENTRICITY":0.00014736,"INCLINATION":43.0019,"RA_OF_ASC_NODE":211.5713,"ARG_OF_PERICENTER":257.9299,"MEAN_ANOMALY":102.1387,"EPHEMERIS_TYPE":0,"CLASSIFICATION_TYPE":"U","NORAD_CAT_ID":62285,"ELEMENT_SET_NO":999,"REV_AT_EPOCH":4207,"BSTAR":0.0012560888,"MEAN_MOTION_DOT":0.00034488,"MEAN_MOTION_DDOT":0},{"OBJECT_NAME":"STARLINK-33564","OBJECT_ID":"2024-237V","EPOCH":"2025-08-31T07:20:03.077088","MEAN_MOTION":15.27605228,"ECCENTRICITY":0.00015792,"INCLINATION":43.0034,"RA_OF_ASC_NODE":211.6829,"ARG_OF_PERICENTER":263.9753,"MEAN_ANOMALY":96.0918,"EPHEMERIS_TYPE":0,"CLASSIFICATION_TYPE":"U","NORAD_CAT_ID":62286,"ELEMENT_SET_NO":999,"REV_AT_EPOCH":4207,"BSTAR":0.0016024384,"MEAN_MOTION_DOT":0.00044132,"MEAN_MOTION_DDOT":0},{"OBJECT_NAME":"STARLINK-33546","OBJECT_ID":"2024-237W","EPOCH":"2025-08-31T07:08:57.568128","MEAN_MOTION":15.27589443,"ECCENTRICITY":0.00018562,"INCLINATION":43.0021,"RA_OF_ASC_NODE":211.6224,"ARG_OF_PERICENTER":262.6284,"MEAN_ANOMALY":97.4357,"EPHEMERIS_TYPE":0,"CLASSIFICATION_TYPE":"U","NORAD_CAT_ID":62287,"ELEMENT_SET_NO":999,"REV_AT_EPOCH":4198,"BSTAR":0.0016486679,"MEAN_MOTION_DOT":0.00045399,"MEAN_MOTION_DDOT":0},{"OBJECT_NAME":"STARLINK-33565","OBJECT_ID":"2024-237X","EPOCH":"2025-08-31T03:51:24.609600","MEAN_MOTION":15.2763245,"ECCENTRICITY":0.00014228,"INCLINATION":42.9992,"RA_OF_ASC_NODE":201.0632,"ARG_OF_PERICENTER":259.5788,"MEAN_ANOMALY":100.4903,"EPHEMERIS_TYPE":0,"CLASSIFICATION_TYPE":"U","NORAD_CAT_ID":62288,"ELEMENT_SET_NO":999,"REV_AT_EPOCH":4218,"BSTAR":0.0016994745,"MEAN_MOTION_DOT":0.00046877,"MEAN_MOTION_DDOT":0},{"OBJECT_NAME":"STARLINK-33549","OBJECT_ID":"2024-237Y","EPOCH":"2025-08-31T05:51:26.307936","MEAN_MOTION":15.27605354,"ECCENTRICITY":0.00016341,"INCLINATION":43.0013,"RA_OF_ASC_NODE":212.0807,"ARG_OF_PERICENTER":260.2645,"MEAN_ANOMALY":99.8022,"EPHEMERIS_TYPE":0,"CLASSIFICATION_TYPE":"U","NORAD_CAT_ID":62289,"ELEMENT_SET_NO":999,"REV_AT_EPOCH":4206,"BSTAR":0.0013792227,"MEAN_MOTION_DOT":0.00037916,"MEAN_MOTION_DDOT":0},{"OBJECT_NAME":"STARLINK-32648","OBJECT_ID":"2024-239A","EPOCH":"2025-08-31T13:59:56.192928","MEAN_MOTION":15.39586318,"ECCENTRICITY":0.00010833,"INCLINATION":53.1596,"RA_OF_ASC_NODE":347.3,"ARG_OF_PERICENTER":60.834,"MEAN_ANOMALY":299.2774,"EPHEMERIS_TYPE":0,"CLASSIFICATION_TYPE":"U","NORAD_CAT_ID":62301,"ELEMENT_SET_NO":999,"REV_AT_EPOCH":4041,"BSTAR":0.0012763059,"MEAN_MOTION_DOT":0.00050936,"MEAN_MOTION_DDOT":0},{"OBJECT_NAME":"STARLINK-32594","OBJECT_ID":"2024-239B","EPOCH":"2025-08-31T13:29:54.184416","MEAN_MOTION":15.30197046,"ECCENTRICITY":0.00010047,"INCLINATION":53.1618,"RA_OF_ASC_NODE":354.8282,"ARG_OF_PERICENTER":63.6242,"MEAN_ANOMALY":296.4862,"EPHEMERIS_TYPE":0,"CLASSIFICATION_TYPE":"U","NORAD_CAT_ID":62302,"ELEMENT_SET_NO":999,"REV_AT_EPOCH":4030,"BSTAR":0.0011795199,"MEAN_MOTION_DOT":0.00034735,"MEAN_MOTION_DDOT":0},{"OBJECT_NAME":"STARLINK-32621","OBJECT_ID":"2024-239C","EPOCH":"2025-08-31T13:39:23.931936","MEAN_MOTION":15.39582276,"ECCENTRICITY":0.0001497,"INCLINATION":53.1604,"RA_OF_ASC_NODE":347.2092,"ARG_OF_PERICENTER":59.3592,"MEAN_ANOMALY":300.756,"EPHEMERIS_TYPE":0,"CLASSIFICATION_TYPE":"U","NORAD_CAT_ID":62303,"ELEMENT_SET_NO":999,"REV_AT_EPOCH":4041,"BSTAR":0.0017200731,"MEAN_MOTION_DOT":0.00068941,"MEAN_MOTION_DDOT":0},{"OBJECT_NAME":"STARLINK-32597","OBJECT_ID":"2024-239D","EPOCH":"2025-08-31T14:19:59.788992","MEAN_MOTION":15.39610003,"ECCENTRICITY":0.00012975,"INCLINATION":53.1609,"RA_OF_ASC_NODE":347.3893,"ARG_OF_PERICENTER":78.9951,"MEAN_ANOMALY":281.12,"EPHEMERIS_TYPE":0,"CLASSIFICATION_TYPE":"U","NORAD_CAT_ID":62304,"ELEMENT_SET_NO":999,"REV_AT_EPOCH":4041,"BSTAR":0.0011900558,"MEAN_MOTION_DOT":0.00047483,"MEAN_MOTION_DDOT":0},{"OBJECT_NAME":"STARLINK-32649","OBJECT_ID":"2024-239E","EPOCH":"2025-08-31T14:05:29.386752","MEAN_MOTION":15.30173574,"ECCENTRICITY":0.00011165,"INCLINATION":53.1614,"RA_OF_ASC_NODE":356.5582,"ARG_OF_PERICENTER":95.3998,"MEAN_ANOMALY":264.713,"EPHEMERIS_TYPE":0,"CLASSIFICATION_TYPE":"U","NORAD_CAT_ID":62305,"ELEMENT_SET_NO":999,"REV_AT_EPOCH":4028,"BSTAR":0.00143561,"MEAN_MOTION_DOT":0.00042367,"MEAN_MOTION_DDOT":0},{"OBJECT_NAME":"STARLINK-32633","OBJECT_ID":"2024-239F","EPOCH":"2025-08-31T14:48:02.395296","MEAN_MOTION":15.30177154,"ECCENTRICITY":0.00012983,"INCLINATION":53.1591,"RA_OF_ASC_NODE":356.7366,"ARG_OF_PERICENTER":56.198,"MEAN_ANOMALY":303.9144,"EPHEMERIS_TYPE":0,"CLASSIFICATION_TYPE":"U","NORAD_CAT_ID":62306,"ELEMENT_SET_NO":999,"REV_AT_EPOCH":4028,"BSTAR":0.0016152534,"MEAN_MOTION_DOT":0.00047754,"MEAN_MOTION_DDOT":0}]
